{"fetched_at":"2026-03-29T16:36:15Z","count":15609,"tles":[{"name":"STARLINK-6112","line1":"1 57136U 23090AM  26087.87925632  .00000059  00000+0  11863-4 0  9997","line2":"2 57136  43.0017 154.5047 0001051 303.2489  56.8262 15.26738704153316","category":"Starlink"}]}